TEVEL2-4                
1 63213U 25052D   26068.69417973  .00020990  00000+0  70363-3 0  9998
2 63213  97.4009 325.1237 0004733  95.3468 264.8313 15.30925813 54879
STARLINK-33814          
1 63582U 25076P   26068.03740400  .00047391  00000+0  17192-2 0  9999
2 63582  43.0039 325.1199 0001404 269.9064  90.1627 15.27607641 51730
